{
    "links": {
        "self": "http://www.neowsapp.com/rest/v1/neo/54017594?api_key=iIulBulltgU6a56xZRHN4H3l9WmuAYTsLGpBGhQ2"
    },
    "id": "54017594",
    "neo_reference_id": "54017594",
    "name": "(2020 MB2)",
    "designation": "2020 MB2",
    "nasa_jpl_url": "http://ssd.jpl.nasa.gov/sbdb.cgi?sstr=54017594",
    "absolute_magnitude_h": 19.041,
    "estimated_diameter": {
        "kilometers": {
            "estimated_diameter_min": 0.4133852501,
            "estimated_diameter_max": 0.9243575201
        },
        "meters": {
            "estimated_diameter_min": 413.3852500965,
            "estimated_diameter_max": 924.3575201114
        },
        "miles": {
            "estimated_diameter_min": 0.2568656062,
            "estimated_diameter_max": 0.5743689566
        },
        "feet": {
            "estimated_diameter_min": 1356.2508639265,
            "estimated_diameter_max": 3032.6691262824
        }
    },
    "is_potentially_hazardous_asteroid": false,
    "close_approach_data": [
        {
            "close_approach_date": "2025-12-30",
            "close_approach_date_full": "2025-Dec-30 04:49",
            "epoch_date_close_approach": 1767070140000,
            "relative_velocity": {
                "kilometers_per_second": "27.6237550486",
                "kilometers_per_hour": "99445.5181750741",
                "miles_per_hour": "61791.5776682842"
            },
            "miss_distance": {
                "astronomical": "0.3729386307",
                "lunar": "145.0731273423",
                "kilometers": "55790824.793436609",
                "miles": "34666811.0052548442"
            },
            "orbiting_body": "Earth"
        },
        {
            "close_approach_date": "2029-01-16",
            "close_approach_date_full": "2029-Jan-16 19:41",
            "epoch_date_close_approach": 1863286860000,
            "relative_velocity": {
                "kilometers_per_second": "22.8108110737",
                "kilometers_per_hour": "82118.9198651792",
                "miles_per_hour": "51025.5032906721"
            },
            "miss_distance": {
                "astronomical": "0.1686470568",
                "lunar": "65.6037050952",
                "kilometers": "25229240.479049016",
                "miles": "15676723.0943717808"
            },
            "orbiting_body": "Earth"
        },
        {
            "close_approach_date": "2033-06-12",
            "close_approach_date_full": "2033-Jun-12 00:20",
            "epoch_date_close_approach": 2002148400000,
            "relative_velocity": {
                "kilometers_per_second": "6.8010949014",
                "kilometers_per_hour": "24483.9416452079",
                "miles_per_hour": "15213.369185046"
            },
            "miss_distance": {
                "astronomical": "1.8999285188",
                "lunar": "739.0721938132",
                "kilometers": "284225259.564734956",
                "miles": "176609386.8074401528"
            },
            "orbiting_body": "Juptr"
        }
    ],
    "orbital_data": {
        "orbit_id": "3",
        "orbit_determination_date": "2020-07-19 06:40:17",
        "first_observation_date": "2020-06-21",
        "last_observation_date": "2020-07-18",
        "data_arc_in_days": 27,
        "observations_used": 28,
        "orbit_uncertainty": "7",
        "minimum_orbit_intersection": ".119695",
        "jupiter_tisserand_invariant": "3.359",
        "epoch_osculation": "2459000.5",
        "eccentricity": ".6115749265852652",
        "semi_major_axis": "2.101778157988407",
        "inclination": "28.59356933742528",
        "ascending_node_longitude": "313.1420317606013",
        "orbital_period": "1112.957905224453",
        "perihelion_distance": ".8163833353181328",
        "perihelion_argument": "208.3938108310309",
        "aphelion_distance": "3.387172980658681",
        "perihelion_time": "2458844.175710705684",
        "mean_anomaly": "50.56502486013093",
        "mean_motion": ".3234623684418666",
        "equinox": "J2000",
        "orbit_class": {
            "orbit_class_type": "APO",
            "orbit_class_description": "Near-Earth asteroid orbits which cross the Earth’s orbit similar to that of 1862 Apollo",
            "orbit_class_range": "a (semi-major axis) > 1.0 AU; q (perihelion) < 1.017 AU"
        }
    },
    "is_sentry_object": false
}